{"fetched_at":"2026-03-30T06:02:59Z","count":15439,"tles":[{"name":"STARLINK-35976","line1":"1 66534U 25265U   26087.61525929  .00020345  00000+0  74614-3 0  9994","line2":"2 66534  43.0033 171.4131 0001029 261.6899  98.3836 15.27609515 20000","category":"Starlink"}]}