{
  "norad_id": 66534,
  "name": "STARLINK-35976",
  "history": [
    {
      "epoch": "2026-03-28T14:45:58.402656",
      "apogee_km": 483.6667258899397,
      "perigee_km": 482.2547119793835,
      "latitude_deg": 22.525160314035016,
      "longitude_deg": 172.4648918400053,
      "semi_major_axis_km": 6861.097718934661,
      "eccentricity": 0.0001029,
      "inclination_deg": 43.0033,
      "raan_deg": 171.4131,
      "arg_perigee_deg": 261.6899,
      "mean_anomaly_deg": 98.3836,
      "mean_motion_rev_day": 15.27609515
    }
  ]
}